FLOCK 4BE-35            
1 60558U 24149CU  26064.49375907  .00102635  00000+0  23224-2 0  9997
2 60558  97.3796 147.6831 0004546 272.5809  87.4918 15.42743959 86357
FLOCK 4BE-5             
1 60559U 24149CV  26064.16949388  .00025347  00000+0  70561-3 0  9993
2 60559  97.3885 147.4105 0002496 314.9178  45.1864 15.36797845 86280
FLOCK 4BE-12            
1 60560U 24149CW  26064.20002101  .00113881  00000+0  23376-2 0  9995
2 60560  97.3766 148.0944 0005713 276.9806  83.0793 15.45584268 86373
FLOCK 4BE-3             
1 60561U 24149CX  26064.17563810  .00022232  00000+0  59594-3 0  9992
2 60561  97.3750 147.3406 0003135 301.4213  58.6725 15.37996257 86339
FLOCK 4BE-19            
1 60563U 24149CZ  26064.18865049  .00025849  00000+0  64623-3 0  9990
2 60563  97.3790 148.4418 0003241 306.9051  53.1898 15.40107565 86395
PELICAN-2               
1 62631U 25009Y   26064.24350730  .00093384  00000+0  22933-2 0  9993
2 62631  97.4033 154.4934 0005584 233.1270 126.9464 15.40305662 63559
PELICAN-3               
1 65315U 25188A   26063.67400564  .00050463  00000+0  12332-2 0  9993
2 65315  97.2250 141.2804 0002789 207.1167 152.9935 15.40657683 29221
PELICAN-4               
1 65316U 25188B   26064.20923844  .00009180  00000+0  22724-3 0  9992
2 65316  97.2328 141.9068 0004860 107.6033 252.5745 15.40639705 29305
